{"type": "FeatureCollection", "features": [ {"type": "Feature", "properties": {"norad_id": 34861, "name": "COSMOS 2251 DEB", "group": "cosmos-2251-debris", "lat": 40.37996007209391, "lon": 81.87719324572616, "alt_km": 554.8466844798813, "timestamp": "2025-12-04T10:51:50.501337+00:00", "meta": {"OBJECT_NAME": "COSMOS 2251 DEB", "OBJECT_ID": "1993-036ACF", "EPOCH": "2025-12-03T06:01:48.787104", "MEAN_MOTION": 15.01590814, "ECCENTRICITY": 0.0005956, "INCLINATION": 74.0186, "RA_OF_ASC_NODE": 70.2195, "ARG_OF_PERICENTER": 81.3794, "MEAN_ANOMALY": 309.1741, "EPHEMERIS_TYPE": 0, "CLASSIFICATION_TYPE": "U", "NORAD_CAT_ID": 34861, "ELEMENT_SET_NO": 999, "REV_AT_EPOCH": 87950, "BSTAR": 0.0032722, "MEAN_MOTION_DOT": 0.00042671, "MEAN_MOTION_DDOT": 0}, "tle": {"line1": "1 34861U 93036ACF 25337.25125911  .00042671  00000+0  32722-2 0  9996", "line2": "2 34861  74.0186  70.2195 0005956  81.3794 309.1741 15.01590814879509"}}, "geometry": {"type": "Point", "coordinates": [81.87719324572616, 40.37996007209391]}}, {"type": "Feature", "properties": {"norad_id": 34874, "name": "COSMOS 2251 DEB", "group": "cosmos-2251-debris", "lat": 20.042951697412857, "lon": -97.00992755805312, "alt_km": 743.2053295323049, "timestamp": "2025-12-04T10:51:50.501348+00:00", "meta": {"OBJECT_NAME": "COSMOS 2251 DEB", "OBJECT_ID": "1993-036ACM", "EPOCH": "2025-12-03T07:32:24.014112", "MEAN_MOTION": 14.3622583, "ECCENTRICITY": 0.0051549, "INCLINATION": 74.039, "RA_OF_ASC_NODE": 91.0729, "ARG_OF_PERICENTER": 119.3072, "MEAN_ANOMALY": 275.1371, "EPHEMERIS_TYPE": 0, "CLASSIFICATION_TYPE": "U", "NORAD_CAT_ID": 34874, "ELEMENT_SET_NO": 999, "REV_AT_EPOCH": 86909, "BSTAR": 0.0014888, "MEAN_MOTION_DOT": 4.389e-05, "MEAN_MOTION_DDOT": 0}, "tle": {"line1": "1 34874U 93036ACM 25337.31416683  .00004389  00000+0  14888-2 0  9993", "line2": "2 34874  74.0390  91.0729 0051549 119.3072 275.1371 14.36225830869098"}}, "geometry": {"type": "Point", "coordinates": [-97.00992755805312, 20.042951697412857]}}, {"type": "Feature", "properties": {"norad_id": 34875, "name": "COSMOS 2251 DEB", "group": "cosmos-2251-debris", "lat": -14.39159463197856, "lon": -2.0485680235888046, "alt_km": 736.1054175140998, "timestamp": "2025-12-04T10:51:50.501358+00:00", "meta": {"OBJECT_NAME": "COSMOS 2251 DEB", "OBJECT_ID": "1993-036ACN", "EPOCH": "2025-12-02T23:29:38.183424", "MEAN_MOTION": 14.48872152, "ECCENTRICITY": 0.00159602, "INCLINATION": 74.0432, "RA_OF_ASC_NODE": 176.5012, "ARG_OF_PERICENTER": 300.7833, "MEAN_ANOMALY": 130.3671, "EPHEMERIS_TYPE": 0, "CLASSIFICATION_TYPE": "U", "NORAD_CAT_ID": 34875, "ELEMENT_SET_NO": 999, "REV_AT_EPOCH": 87614, "BSTAR": 0.00050895794, "MEAN_MOTION_DOT": 1.901e-05, "MEAN_MOTION_DDOT": 0}, "tle": {"line1": "1 34875U 93036ACN 25336.97891416  .00001901  00000+0  50896-3 0  9993", "line2": "2 34875  74.0432 176.5012 0015960 300.7833 130.3671 14.48872152876145"}}, "geometry": {"type": "Point", "coordinates": [-2.0485680235888046, -14.39159463197856]}}, {"type": "Feature", "properties": {"norad_id": 34878, "name": "COSMOS 2251 DEB", "group": "cosmos-2251-debris", "lat": -25.5373995631594, "lon": -111.63309192656263, "alt_km": 1404.7479670181183, "timestamp": "2025-12-04T10:51:50.501368+00:00", "meta": {"OBJECT_NAME": "COSMOS 2251 DEB", "OBJECT_ID": "1993-036ACR", "EPOCH": "2025-12-01T14:17:05.154720", "MEAN_MOTION": 13.44171436, "ECCENTRICITY": 0.04352412, "INCLINATION": 73.9642, "RA_OF_ASC_NODE": 65.0008, "ARG_OF_PERICENTER": 50.7211, "MEAN_ANOMALY": 11.8748, "EPHEMERIS_TYPE": 0, "CLASSIFICATION_TYPE": "U", "NORAD_CAT_ID": 34878, "ELEMENT_SET_NO": 999, "REV_AT_EPOCH": 81123, "BSTAR": 0.00042153975, "MEAN_MOTION_DOT": 4.13e-06, "MEAN_MOTION_DDOT": 0}, "tle": {"line1": "1 34878U 93036ACR 25335.59519855  .00000413  00000+0  42154-3 0  9992", "line2": "2 34878  73.9642  65.0008 0435241  50.7211  11.8748 13.44171436811235"}}, "geometry": {"type": "Point", "coordinates": [-111.63309192656263, -25.5373995631594]}}, {"type": "Feature", "properties": {"norad_id": 34882, "name": "COSMOS 2251 DEB", "group": "cosmos-2251-debris", "lat": 55.27242855807981, "lon": 37.06128107969471, "alt_km": 702.7126707037651, "timestamp": "2025-12-04T10:51:50.501378+00:00", "meta": {"OBJECT_NAME": "COSMOS 2251 DEB", "OBJECT_ID": "1993-036ACV", "EPOCH": "2025-12-03T11:19:04.630368", "MEAN_MOTION": 14.61565557, "ECCENTRICITY": 0.00824229, "INCLINATION": 74.0468, "RA_OF_ASC_NODE": 243.3099, "ARG_OF_PERICENTER": 12.5896, "MEAN_ANOMALY": 347.7302, "EPHEMERIS_TYPE": 0, "CLASSIFICATION_TYPE": "U", "NORAD_CAT_ID": 34882, "ELEMENT_SET_NO": 999, "REV_AT_EPOCH": 88389, "BSTAR": 0.00032362207, "MEAN_MOTION_DOT": 1.655e-05, "MEAN_MOTION_DDOT": 0}, "tle": {"line1": "1 34882U 93036ACV 25337.47158137  .00001655  00000+0  32362-3 0  9997", "line2": "2 34882  74.0468 243.3099 0082422  12.5896 347.7302 14.61565557883892"}}, "geometry": {"type": "Point", "coordinates": [37.06128107969471, 55.27242855807981]}}, {"type": "Feature", "properties": {"norad_id": 34883, "name": "COSMOS 2251 DEB", "group": "cosmos-2251-debris", "lat": 60.67747633367632, "lon": -132.11435444222894, "alt_km": 774.2917185481774, "timestamp": "2025-12-04T10:51:50.501389+00:00", "meta": {"OBJECT_NAME": "COSMOS 2251 DEB", "OBJECT_ID": "1993-036ACW", "EPOCH": "2025-12-03T06:11:49.903008", "MEAN_MOTION": 14.50906978, "ECCENTRICITY": 0.009512, "INCLINATION": 74.1992, "RA_OF_ASC_NODE": 80.3835, "ARG_OF_PERICENTER": 267.1357, "MEAN_ANOMALY": 91.8916, "EPHEMERIS_TYPE": 0, "CLASSIFICATION_TYPE": "U", "NORAD_CAT_ID": 34883, "ELEMENT_SET_NO": 999, "REV_AT_EPOCH": 86302, "BSTAR": 0.0065943, "MEAN_MOTION_DOT": 0.00027681, "MEAN_MOTION_DDOT": 0}, "tle": {"line1": "1 34883U 93036ACW 25337.25821647  .00027681  00000+0  65943-2 0  9994", "line2": "2 34883  74.1992  80.3835 0095120 267.1357  91.8916 14.50906978863027"}}, "geometry": {"type": "Point", "coordinates": [-132.11435444222894, 60.67747633367632]}}, {"type": "Feature", "properties": {"norad_id": 34884, "name": "COSMOS 2251 DEB", "group": "cosmos-2251-debris", "lat": -17.28809564352294, "lon": 68.21960627998041, "alt_km": 606.1360125161818, "timestamp": "2025-12-04T10:51:50.501400+00:00", "meta": {"OBJECT_NAME": "COSMOS 2251 DEB", "OBJECT_ID": "1993-036ACX", "EPOCH": "2025-12-04T00:26:54.879072", "MEAN_MOTION": 14.89353693, "ECCENTRICITY": 0.0002761, "INCLINATION": 74.0182, "RA_OF_ASC_NODE": 74.2052, "ARG_OF_PERICENTER": 135.5897, "MEAN_ANOMALY": 40.6331, "EPHEMERIS_TYPE": 0, "CLASSIFICATION_TYPE": "U", "NORAD_CAT_ID": 34884, "ELEMENT_SET_NO": 999, "REV_AT_EPOCH": 87675, "BSTAR": 0.0058969, "MEAN_MOTION_DOT": 0.00056407, "MEAN_MOTION_DDOT": 0}, "tle": {"line1": "1 34884U 93036ACX 25338.01869073  .00056407  00000+0  58969-2 0  9993", "line2": "2 34884  74.0182  74.2052 0002761 135.5897  40.6331 14.89353693876756"}}, "geometry": {"type": "Point", "coordinates": [68.21960627998041, -17.28809564352294]}}, {"type": "Feature", "properties": {"norad_id": 34885, "name": "COSMOS 2251 DEB", "group": "cosmos-2251-debris", "lat": -65.33991392291384, "lon": 160.0374214906069, "alt_km": 716.9424804474029, "timestamp": "2025-12-04T10:51:50.501410+00:00", "meta": {"OBJECT_NAME": "COSMOS 2251 DEB", "OBJECT_ID": "1993-036ACY", "EPOCH": "2025-12-04T01:58:07.124160", "MEAN_MOTION": 14.51434375, "ECCENTRICITY": 0.0015384, "INCLINATION": 74.0311, "RA_OF_ASC_NODE": 199.3221, "ARG_OF_PERICENTER": 285.1695, "MEAN_ANOMALY": 228.0196, "EPHEMERIS_TYPE": 0, "CLASSIFICATION_TYPE": "U", "NORAD_CAT_ID": 34885, "ELEMENT_SET_NO": 999, "REV_AT_EPOCH": 87353, "BSTAR": 0.0012622, "MEAN_MOTION_DOT": 5.022e-05, "MEAN_MOTION_DDOT": 0}, "tle": {"line1": "1 34885U 93036ACY 25338.08202690  .00005022  00000+0  12622-2 0  9990", "line2": "2 34885  74.0311 199.3221 0015384 285.1695 228.0196 14.51434375873531"}}, "geometry": {"type": "Point", "coordinates": [160.0374214906069, -65.33991392291384]}}, {"type": "Feature", "properties": {"norad_id": 34886, "name": "COSMOS 2251 DEB", "group": "cosmos-2251-debris", "lat": -41.19511419086602, "lon": -175.65740723832482, "alt_km": 453.1139652165002, "timestamp": "2025-12-04T10:51:50.501421+00:00", "meta": {"OBJECT_NAME": "COSMOS 2251 DEB", "OBJECT_ID": "1993-036ACZ", "EPOCH": "2025-12-02T21:33:25.254144", "MEAN_MOTION": 15.36781254, "ECCENTRICITY": 0.00310818, "INCLINATION": 73.9522, "RA_OF_ASC_NODE": 202.2947, "ARG_OF_PERICENTER": 28.5971, "MEAN_ANOMALY": 331.6931, "EPHEMERIS_TYPE": 0, "CLASSIFICATION_TYPE": "U", "NORAD_CAT_ID": 34886, "ELEMENT_SET_NO": 999, "REV_AT_EPOCH": 62847, "BSTAR": 0.0022652604, "MEAN_MOTION_DOT": 0.00083623, "MEAN_MOTION_DDOT": 0}, "tle": {"line1": "1 34886U 93036ACZ 25336.89820896  .00083623  00000+0  22653-2 0  9990", "line2": "2 34886  73.9522 202.2947 0031081  28.5971 331.6931 15.36781254628475"}}, "geometry": {"type": "Point", "coordinates": [-175.65740723832482, -41.19511419086602]}}, {"type": "Feature", "properties": {"norad_id": 34907, "name": "COSMOS 2251 DEB", "group": "cosmos-2251-debris", "lat": 10.829626539517456, "lon": -116.74632463658871, "alt_km": 468.3347046881954, "timestamp": "2025-12-04T10:51:50.501431+00:00", "meta": {"OBJECT_NAME": "COSMOS 2251 DEB", "OBJECT_ID": "1993-036ADC", "EPOCH": "2025-12-03T07:33:59.715936", "MEAN_MOTION": 15.36069662, "ECCENTRICITY": 0.0017313, "INCLINATION": 73.9746, "RA_OF_ASC_NODE": 68.8584, "ARG_OF_PERICENTER": 354.075, "MEAN_ANOMALY": 6.0248, "EPHEMERIS_TYPE": 0, "CLASSIFICATION_TYPE": "U", "NORAD_CAT_ID": 34907, "ELEMENT_SET_NO": 999, "REV_AT_EPOCH": 87828, "BSTAR": 0.0098879, "MEAN_MOTION_DOT": 0.00366153, "MEAN_MOTION_DDOT": 0}, "tle": {"line1": "1 34907U 93036ADC 25337.31527449  .00366153  00000+0  98879-2 0  9995", "line2": "2 34907  73.9746  68.8584 0017313 354.0750   6.0248 15.36069662878286"}}, "geometry": {"type": "Point", "coordinates": [-116.74632463658871, 10.829626539517456]}}]}